{
  "type": "FeatureCollection",
  "name": "custom_features",
  "features": [
    {
      "type": "Feature",
      "properties": {
        "feature_id": 4,
        "name": "The Brake",
        "feature_type": "forest",
        "description": "The wilderness north of Bellamy",
        "style_color": "#1a9850",
        "style_weight": 2,
        "label_offset_x": 0,
        "label_offset_y": 0,
        "inkarnate_path": null,
        "hidden": false
      },
      "geometry": {
        "type": "Polygon",
        "coordinates": [
          [
            [
              22.689514,
              12.479487
            ],
            [
              22.758179,
              12.455351
            ],
            [
              22.832336,
              12.471442
            ],
            [
              22.922974,
              12.490214
            ],
            [
              23.027344,
              12.554564
            ],
            [
              23.109741,
              12.433894
            ],
            [
              23.192139,
              12.326586
            ],
            [
              23.356934,
              12.270231
            ],
            [
              23.466797,
              12.353417
            ],
            [
              23.664551,
              12.412436
            ],
            [
              23.708496,
              12.541159
            ],
            [
              23.68103,
              12.744837
            ],
            [
              23.675537,
              12.91623
            ],
            [
              23.494263,
              12.926938
            ],
            [
              23.337708,
              13.017938
            ],
            [
              23.285522,
              13.191816
            ],
            [
              23.15094,
              13.264006
            ],
            [
              22.997131,
              13.210534
            ],
            [
              22.931213,
              13.00991
            ],
            [
              22.755432,
              12.977795
            ],
            [
              22.618103,
              12.766268
            ],
            [
              22.642822,
              12.586732
            ],
            [
              22.689514,
              12.479487
            ]
          ]
        ]
      }
    },
    {
      "type": "Feature",
      "properties": {
        "feature_id": 8,
        "name": "forest path",
        "feature_type": "trail",
        "description": "",
        "style_color": "#a08060",
        "style_weight": 2,
        "label_offset_x": 0,
        "label_offset_y": 0,
        "inkarnate_path": null,
        "hidden": false
      },
      "geometry": {
        "type": "LineString",
        "coordinates": [
          [
            22.765732,
            12.325345
          ],
          [
            22.791138,
            12.339432
          ],
          [
            22.81311,
            12.351505
          ],
          [
            22.862549,
            12.38437
          ],
          [
            22.909927,
            12.407843
          ],
          [
            22.974472,
            12.441371
          ],
          [
            22.979965,
            12.465508
          ],
          [
            22.990265,
            12.486292
          ],
          [
            23.016357,
            12.499029
          ],
          [
            23.052063,
            12.508414
          ],
          [
            23.093262,
            12.515788
          ],
          [
            23.127594,
            12.515788
          ],
          [
            23.160553,
            12.511096
          ],
          [
            23.185959,
            12.503722
          ],
          [
            23.214111,
            12.488303
          ],
          [
            23.236084,
            12.479588
          ],
          [
            23.266296,
            12.474224
          ],
          [
            23.293076,
            12.471542
          ],
          [
            23.319168,
            12.464838
          ],
          [
            23.332901,
            12.461486
          ],
          [
            23.335648,
            12.439359
          ],
          [
            23.334961,
            12.424607
          ],
          [
            23.358994,
            12.407843
          ],
          [
            23.389893,
            12.379676
          ],
          [
            23.419418,
            12.339432
          ],
          [
            23.429718,
            12.31327
          ],
          [
            23.435211,
            12.29046
          ],
          [
            23.45787,
            12.256912
          ],
          [
            23.470917,
            12.228729
          ],
          [
            23.47538,
            12.195266
          ]
        ]
      }
    },
    {
      "type": "Feature",
      "properties": {
        "feature_id": 9,
        "name": "",
        "feature_type": "road",
        "description": "",
        "style_color": "#5c3a1e",
        "style_weight": 3,
        "label_offset_x": 0,
        "label_offset_y": 0,
        "inkarnate_path": null,
        "hidden": false
      },
      "geometry": {
        "type": "LineString",
        "coordinates": [
          [
            23.525162,
            11.844553
          ],
          [
            23.539581,
            11.815991
          ],
          [
            23.559151,
            11.803893
          ],
          [
            23.550568,
            11.766251
          ],
          [
            23.558464,
            11.751462
          ],
          [
            23.558121,
            11.736672
          ],
          [
            23.552971,
            11.727932
          ],
          [
            23.554688,
            11.713141
          ],
          [
            23.547821,
            11.700702
          ],
          [
            23.548164,
            11.688599
          ],
          [
            23.538208,
            11.678177
          ],
          [
            23.529968,
            11.674478
          ],
          [
            23.521385,
            11.672797
          ],
          [
            23.521729,
            11.657667
          ],
          [
            23.520355,
            11.640854
          ],
          [
            23.514862,
            11.629085
          ],
          [
            23.512115,
            11.615297
          ],
          [
            23.514175,
            11.604199
          ],
          [
            23.522072,
            11.593437
          ],
          [
            23.524475,
            11.583011
          ],
          [
            23.522758,
            11.57023
          ],
          [
            23.530655,
            11.562494
          ],
          [
            23.533745,
            11.551058
          ],
          [
            23.533745,
            11.539285
          ],
          [
            23.540611,
            11.528184
          ],
          [
            23.548508,
            11.518092
          ],
          [
            23.561897,
            11.504635
          ],
          [
            23.56739,
            11.494879
          ],
          [
            23.57769,
            11.487141
          ],
          [
            23.589706,
            11.484449
          ],
          [
            23.588333,
            11.470318
          ],
          [
            23.58387,
            11.452485
          ],
          [
            23.57872,
            11.438015
          ],
          [
            23.568764,
            11.412776
          ],
          [
            23.562584,
            11.393257
          ],
          [
            23.548164,
            11.363975
          ],
          [
            23.546104,
            11.341422
          ],
          [
            23.539238,
            11.326947
          ],
          [
            23.532028,
            11.309778
          ],
          [
            23.518295,
            11.300352
          ],
          [
            23.497009,
            11.294628
          ],
          [
            23.483276,
            11.286885
          ],
          [
            23.472977,
            11.274427
          ],
          [
            23.465767,
            11.260622
          ],
          [
            23.46199,
            11.23301
          ],
          [
            23.461647,
            11.217183
          ],
          [
            23.460274,
            11.204722
          ],
          [
            23.454781,
            11.200007
          ],
          [
            23.444138,
            11.177442
          ],
          [
            23.421822,
            11.151843
          ],
          [
            23.409805,
            11.135338
          ],
          [
            23.384056,
            11.128263
          ],
          [
            23.371696,
            11.119168
          ],
          [
            23.361053,
            11.104008
          ],
          [
            23.351784,
            11.088173
          ],
          [
            23.35041,
            11.065936
          ],
          [
            23.349037,
            11.033588
          ],
          [
            23.340454,
            11.013706
          ],
          [
            23.339424,
            10.993485
          ],
          [
            23.338394,
            10.923714
          ],
          [
            23.339424,
            10.886293
          ],
          [
            23.339081,
            10.853925
          ],
          [
            23.339424,
            10.797611
          ],
          [
            23.319168,
            10.790529
          ],
          [
            23.300972,
            10.779399
          ],
          [
            23.294106,
            10.764559
          ],
          [
            23.287582,
            10.748369
          ],
          [
            23.288269,
            10.735214
          ],
          [
            23.303375,
            10.723745
          ],
          [
            23.320198,
            10.711939
          ],
          [
            23.328781,
            10.701144
          ],
          [
            23.322258,
            10.683601
          ],
          [
            23.312645,
            10.668419
          ],
          [
            23.316422,
            10.651211
          ],
          [
            23.331184,
            10.642439
          ],
          [
            23.339081,
            10.627929
          ],
          [
            23.34938,
            10.615781
          ],
          [
            23.3638,
            10.612744
          ],
          [
            23.398132,
            10.591147
          ],
          [
            23.417702,
            10.583385
          ],
          [
            23.428001,
            10.572923
          ],
          [
            23.429375,
            10.550985
          ],
          [
            23.431435,
            10.538834
          ],
          [
            23.438301,
            10.525332
          ],
          [
            23.447914,
            10.512505
          ],
          [
            23.443451,
            10.489213
          ],
          [
            23.433838,
            10.474359
          ],
          [
            23.431778,
            10.455452
          ],
          [
            23.434181,
            10.441947
          ],
          [
            23.431091,
            10.425403
          ],
          [
            23.430748,
            10.40413
          ],
          [
            23.445854,
            10.384881
          ],
          [
            23.455467,
            10.375763
          ],
          [
            23.459587,
            10.346381
          ],
          [
            23.434868,
            10.328818
          ],
          [
            23.433495,
            10.305174
          ],
          [
            23.442764,
            10.286258
          ],
          [
            23.453751,
            10.281191
          ],
          [
            23.475037,
            10.276124
          ],
          [
            23.487053,
            10.251124
          ],
          [
            23.494606,
            10.214297
          ],
          [
            23.506622,
            10.1947
          ],
          [
            23.517265,
            10.148741
          ],
          [
            23.552628,
            10.091623
          ],
          [
            23.554001,
            10.064243
          ],
          [
            23.583527,
            10.012518
          ],
          [
            23.598976,
            9.989865
          ],
          [
            23.614082,
            9.988513
          ],
          [
            23.642578,
            9.975326
          ],
          [
            23.651505,
            9.948951
          ],
          [
            23.645325,
            9.898223
          ],
          [
            23.639488,
            9.880297
          ],
          [
            23.624725,
            9.8759
          ],
          [
            23.620949,
            9.852899
          ],
          [
            23.634338,
            9.834294
          ],
          [
            23.643608,
            9.804186
          ],
          [
            23.587303,
            9.763587
          ],
          [
            23.581123,
            9.750052
          ],
          [
            23.585243,
            9.733134
          ],
          [
            23.572197,
            9.734149
          ],
          [
            23.551941,
            9.728396
          ],
          [
            23.534088,
            9.706401
          ],
          [
            23.510742,
            9.667481
          ],
          [
            23.48774,
            9.631943
          ],
          [
            23.469543,
            9.604524
          ],
          [
            23.440704,
            9.567286
          ],
          [
            23.420105,
            9.547311
          ],
          [
            23.416672,
            9.53106
          ],
          [
            23.414955,
            9.500924
          ],
          [
            23.415642,
            9.490766
          ],
          [
            23.426628,
            9.402035
          ],
          [
            23.417015,
            9.372227
          ],
          [
            23.443451,
            9.286854
          ],
          [
            23.473663,
            9.265508
          ],
          [
            23.47023,
            9.225183
          ],
          [
            23.496666,
            9.208239
          ],
          [
            23.502846,
            9.199427
          ],
          [
            23.521385,
            9.193666
          ],
          [
            23.533745,
            9.175364
          ],
          [
            23.546448,
            9.16079
          ],
          [
            23.545418,
            9.149265
          ],
          [
            23.545418,
            9.14499
          ]
        ]
      }
    }
  ]
}
